{
  "norad_id": 63717,
  "name": "STARLINK-33725",
  "history": [
    {
      "epoch": "2026-03-28T12:25:23.245824Z",
      "apogee_km": 476.0503394104908,
      "perigee_km": 474.3452297160911,
      "latitude_deg": -4.8879063661217645e-05,
      "longitude_deg": 119.71627063916695,
      "height_km": 476.0146794048352,
      "semi_major_axis_km": 6853.334784563291,
      "eccentricity": 0.0001244,
      "inclination_deg": 53.1602,
      "raan_deg": 132.0001,
      "arg_perigee_deg": 84.5309,
      "mean_anomaly_deg": 275.5833,
      "mean_motion_rev_day": 15.30205789
    }
  ]
}